C/2016 Q2 (PANSTARRS),p,01/03.4689/2020,62.9565,111.0386,3.433919,321.1825,2000,6.0,4.0
# From MPEC 2016-R18
C/2016 Q4 (Kowalski),e,7.2580,271.3502,99.5940,16.79852,0.0143152,0.57845677,352.8388,09/17.0/2016,2000,g  7.0,4.0
# From MPEC 2016-RA7
C/2016 R2 (PANSTARRS),e,58.1492,80.7300,33.0686,122.2959,0.0007288,0.97844868,0.0000,05/16.7259/2018,2000,g  7.0,4.0
# From MPEC 2016-S03
C/2016 R3,p,10/10.9706/2016,53.0108,117.8863,0.448367,78.6961,2000,18.0,4.0
# From AJ 98, 1083
1P/Halley,e,162.3036,58.3003,111.1837,17.85446,0.0130642,0.96761064,146.3267,09/17.0/2016,2000,g  5.5,3.2
# From NK 2573
2P/Encke,e,11.7788,334.5629,186.5589,2.214823,0.2990167,0.84833859,307.9444,09/17.0/2016,2000,g 11.5,6.0
# From MPC 92275
4P/Faye,e,9.1585,199.0329,204.8051,3.823205,0.1318447,0.57326809,110.6789,09/17.0/2016,2000,g  8.0,6.0
# From MPC 95735
6P/d'Arrest,e,19.4829,138.9287,178.0914,3.502036,0.1503915,0.61135171,84.9173,09/17.0/2016,2000,g  7.5,16.0
# From MPC 92984
7P/Pons-Winnecke,e,22.3398,93.3968,172.4967,3.418517,0.1559364,0.63776995,92.8445,09/17.0/2016,2000,g 10.0,6.0
# From MPC 75715
8P/Tuttle,e,54.9863,270.2887,207.5287,5.690679,0.0726036,0.82025091,228.8669,09/17.0/2016,2000,g  8.0,8.0
# From MPC 84319
9P/Tempel,e,10.4740,68.7495,179.2083,3.145372,0.1766835,0.50958285,8.0238,09/17.0/2016,2000,g  5.5,10.0
# From MPC 92984
10P/Tempel,e,12.0291,117.8001,195.5326,3.063866,0.1837805,0.53738063,56.5601,09/17.0/2016,2000,g  5.0,10.0
# From MPC 89730
11P/Tempel-Swift-LINEAR,e,13.6409,239.9934,164.3068,3.406973,0.1567296,0.54831568,117.7212,09/17.0/2016,2000,g 17.0,4.0
# From QJ 27, 604
12P/Pons-Brooks,e,74.2199,255.8199,199.1734,16.95364,0.0141192,0.95437393,320.8212,09/17.0/2016,2000,g  5.0,6.0
# From QJ 27, 604
13P/Olbers,e,44.6367,86.0468,64.5843,16.65003,0.0145071,0.93051892,318.7770,09/17.0/2016,2000,g  5.0,6.0
# From MPC 10028
14P/Wolf,e,27.9033,202.1185,159.0613,4.256802,0.1122222,0.35566000,310.4896,09/17.0/2016,2000,g  5.5,12.0
# From MPC 91617
15P/Finlay,e,6.8080,13.6837,347.8919,3.499077,0.1505823,0.71882613,94.9307,09/17.0/2016,2000,g 12.0,4.0
# From MPC 92276
16P/Brooks,e,4.2672,159.1261,221.0936,3.387530,0.1580808,0.57299373,128.8865,09/17.0/2016,2000,g  7.5,10.0
# From MPC 83523
17P/Holmes,e,19.0729,326.7745,24.7338,3.625828,0.1427556,0.43028467,129.2153,09/17.0/2016,2000,g 10.0,6.0
# From MPC 92984
19P/Borrelly,e,30.3826,75.3077,353.4784,3.600778,0.1442479,0.62567614,68.8149,09/17.0/2016,2000,g  4.5,10.0
# From MPC 94674
21P/Giacobini-Zinner,e,31.9892,195.4105,172.5336,3.512257,0.1497354,0.70823828,251.5492,09/17.0/2016,2000,g  9.0,6.0
# From MPC 94283
22P/Kopff,e,4.7370,120.8679,162.8947,3.445842,0.1540853,0.54785957,50.5242,09/17.0/2016,2000,g  3.0,10.4
# From MPC 14747
23P/Brorsen-Metcalf,e,19.4128,311.3113,129.8889,16.96418,0.0141060,0.97141926,0.0000,09/18.4346/1989,2000,g  7.8,3.2
# From MPC 56804
24P/Schaumasse,e,11.7333,79.6406,58.0376,4.085437,0.1193565,0.70473216,309.1782,09/17.0/2016,2000,g  6.5,14.0
# From MPC 94674
26P/Grigg-Skjellerup,e,22.4471,211.5322,2.1569,3.015966,0.1881761,0.64078143,219.8447,09/17.0/2016,2000,g 12.0,16.0
# From MPC 78188
27P/Crommelin,e,29.2010,250.5815,196.0324,9.214482,0.0352369,0.91864347,66.0177,09/17.0/2016,2000,g 12.0,8.0
# From MPC 75715
28P/Neujmin,e,14.3170,346.3505,347.5504,6.941526,0.0538917,0.77263370,271.6486,09/17.0/2016,2000,g  8.5,6.0
# From MPC 10028
29P/Schwassmann-Wachmann,e,9.3762,312.4101,48.8706,6.015694,0.0667998,0.04167947,298.7281,09/17.0/2016,2000,g  4.0,4.0
# From NK 2729
30P/Reinmuth,e,8.1284,119.7094,13.2628,3.770239,0.1346328,0.50219460,314.7474,09/17.0/2016,2000,g  9.5,6.0
# From MPC 79344
31P/Schwassmann-Wachmann,e,4.5462,114.1374,18.2885,4.247369,0.1125963,0.19383271,244.9848,09/17.0/2016,2000,g  5.0,8.0
# From MPC 92276
32P/Comas Sola,e,9.9712,57.8220,53.2804,4.503970,0.1031124,0.55579241,72.2536,09/17.0/2016,2000,g  6.5,8.0
# From MPC 84320
33P/Daniel,e,22.3944,66.4910,19.0700,4.022928,0.1221492,0.46302345,3.1192,09/17.0/2016,2000,g 10.0,12.0
# From QJ 15, 452
35P/Herschel-Rigollet,e,63.3689,355.5251,29.4771,28.56811,0.0064548,0.97326158,0.0000,03/11.8295/2092,2000,g  8.5,4.0
# From MPC 75716
36P/Whipple,e,9.9557,181.9710,200.0303,4.145482,0.1167727,0.26512256,201.8999,09/17.0/2016,2000,g  8.5,6.0
# From MPC 94674
37P/Forbes,e,8.9679,314.6518,330.0519,3.453858,0.1535491,0.53467617,268.7709,09/17.0/2016,2000,g 10.5,4.8
# From QJ 27, 605
38P/Stephan-Oterma,e,18.3584,78.0280,359.6138,11.27240,0.0260423,0.85924210,339.5584,09/17.0/2016,2000,g  3.5,12.0
# From MPC 75716
39P/Oterma,e,1.5382,299.7909,93.8016,7.420167,0.0487622,0.22365329,242.0099,09/17.0/2016,2000,g  5.0,6.0
# From MPC 10028
40P/Vaisala,e,11.4909,133.8414,47.3284,4.943100,0.0896819,0.63166008,60.1856,09/17.0/2016,2000,g  5.5,12.0
# From MPC 62882
41P/Tuttle-Giacobini-Kresak,e,9.2293,141.0756,62.1408,3.084355,0.1819523,0.66115983,321.9795,09/17.0/2016,2000,g 10.0,16.0
# From MPC 94283
42P/Neujmin,e,3.9845,150.2787,147.0972,4.875542,0.0915524,0.58424440,48.3203,09/17.0/2016,2000,g 13.0,6.0
# From MPC101100
43P/Wolf-Harrington,e,15.9653,249.8333,191.5982,3.349001,0.1608167,0.59452135,4.5518,09/17.0/2016,2000,g  8.0,6.0
# From MPC 89313
44P/Reinmuth,e,5.8961,286.4586,58.2444,3.692061,0.1389315,0.42624620,75.4410,09/17.0/2016,2000,g  8.3,6.0
# From MPC 84320
45P/Honda-Mrkos-Pajdusakova,e,4.2495,89.0072,326.2690,3.024517,0.1873787,0.82392774,340.2897,09/17.0/2016,2000,g 13.5,8.0
# From MPC 88330
46P/Wirtanen,e,11.7489,82.1730,356.3540,3.089127,0.1815308,0.65858018,211.6874,09/17.0/2016,2000,g  9.0,6.0
# From NK 2718
47P/Ashbrook-Jackson,e,13.0308,356.9737,357.6973,4.125255,0.1176326,0.31686704,328.6750,09/17.0/2016,2000,g  1.0,11.2
# From MPC 94675
48P/Johnson,e,12.2141,110.7368,215.5909,3.510330,0.1498587,0.42834103,256.2340,09/17.0/2016,2000,g 10.0,6.0
# From MPC 94675
49P/Arend-Rigaux,e,19.0494,118.8352,332.9174,3.567977,0.1462416,0.59964304,262.5378,09/17.0/2016,2000,g 11.3,4.4
# From MPC 95735
50P/Arend,e,19.1392,355.1756,49.2275,4.083910,0.1194235,0.53013460,26.4888,09/17.0/2016,2000,g  9.5,6.0
# From NK 3014
51P-A/Harrington,e,5.4245,83.6906,269.2701,3.713150,0.1377496,0.54229554,55.2877,09/17.0/2016,2000,g 10.0,8.0
# From NK 3013
51P-D/Harrington,e,5.4253,83.6754,269.3087,3.712130,0.1378064,0.54223236,55.4598,09/17.0/2016,2000,g 16.0,8.0
# From MPC 88330
52P/Harrington-Abell,e,10.2318,336.8351,139.6647,3.859388,0.1299949,0.53998788,120.2066,09/17.0/2016,2000,g 13.5,6.0
# From MPC 10028
53P/Van Biesbroeck,e,6.6083,148.9230,134.2003,5.414395,0.0782311,0.55172785,10.9563,09/17.0/2016,2000,g  7.7,4.8
# From NK 2713
54P/de Vico-Swift-NEAT,e,6.0573,358.8530,1.8691,3.796167,0.1332558,0.42449545,331.9528,09/17.0/2016,2000,g 10.0,6.0
# From MPC 31070
55P/Tempel-Tuttle,e,162.3644,235.3988,172.6174,10.33772,0.0296529,0.90657141,200.7736,09/17.0/2016,2000,g 10.0,10.0
# From MPC101100
56P/Slaughter-Burnham,e,8.1478,345.9847,44.2183,5.084567,0.0859653,0.50661802,5.2067,09/17.0/2016,2000,g  8.5,6.0
# From MPC 98565
57P/du Toit-Neujmin-Delporte,e,2.8485,188.8053,115.1800,3.451670,0.1536952,0.49933867,74.3503,09/17.0/2016,2000,g 12.5,6.0
# From MPC 65938
58P/Jackson-Neujmin,e,13.4987,160.5057,199.9853,4.049727,0.1209387,0.66726448,196.6159,09/17.0/2016,2000,g 15.5,6.0
# From MPC 94675
59P/Kearns-Kwee,e,9.3429,312.8451,127.7561,4.493430,0.1034754,0.47544884,284.4801,09/17.0/2016,2000,g  7.0,6.0
# From MPC 94675
60P/Tsuchinshan,e,3.6069,267.6278,216.5370,3.510220,0.1498658,0.53820340,237.8578,09/17.0/2016,2000,g 11.5,6.0
# From MPC 95213
61P/Shajn-Schaldach,e,6.0058,163.0183,221.9113,3.680164,0.1396057,0.42554485,48.9844,09/17.0/2016,2000,g  6.0,10.0
# From MPC 62881
62P/Tsuchinshan,e,9.7079,90.2565,30.3370,3.438887,0.1545529,0.59765165,294.2922,09/17.0/2016,2000,g  8.0,10.0
# From MPC 84320
63P/Wild,e,19.7844,357.9712,169.1501,5.596411,0.0744457,0.65097411,93.4227,09/17.0/2016,2000,g 10.5,6.0
# From MPC 94675
64P/Swift-Gehrels,e,8.9453,300.0177,97.1373,4.454473,0.1048358,0.68714362,278.4342,09/17.0/2016,2000,g  8.5,12.0
# From MPC 10028
65P/Gunn,e,9.1782,62.0430,213.3110,3.887033,0.1286106,0.25113688,309.3590,09/17.0/2016,2000,g  5.0,6.0
# From MPC 94675
66P/du Toit,e,18.6772,21.8990,257.3080,6.040941,0.0663815,0.78678232,319.5577,09/17.0/2016,2000,g 12.0,3.6
# From MPC 89011
67P/Churyumov-Gerasimenko,e,7.0490,50.0622,12.8437,3.464580,0.1528369,0.64167343,61.2399,09/17.0/2016,2000,g 11.0,4.0
# From MPC 75716
68P/Klemola,e,11.1963,175.2920,153.6651,4.907933,0.0906476,0.64021302,255.8670,09/17.0/2016,2000,g 10.0,4.0
# From MPC 77020
69P/Taylor,e,22.0392,104.8519,343.6595,3.889015,0.1285123,0.41348159,242.7588,09/17.0/2016,2000,g  9.5,12.0
# From MPC 92276
70P/Kojima,e,6.6001,119.2676,1.9436,3.673315,0.1399964,0.45359074,97.6488,09/17.0/2016,2000,g 11.0,6.0
# From NK 2721
71P/Clark,e,9.4439,59.4635,208.9202,3.137695,0.1773323,0.49465546,309.2813,09/17.0/2016,2000,g  9.8,6.0
# From MPC 89011
72P/Denning-Fujikawa,e,10.8842,26.8026,346.6022,4.315924,0.1099242,0.81976380,88.0788,09/17.0/2016,2000,g 17.5,10.0
# From NK 2710
73P/Schwassmann-Wachmann,e,11.2365,69.6733,199.3870,3.091709,0.1813035,0.68560840,327.2166,09/17.0/2016,2000,g 11.5,6.0
# From MPC 94675
74P/Smirnova-Chernykh,e,6.6536,77.0560,86.9754,4.157492,0.1162671,0.14918379,302.3627,09/17.0/2016,2000,g  5.0,6.0
# From MPC 82322
76P/West-Kohoutek-Ikemura,e,30.4673,84.1333,0.0818,3.472180,0.1523354,0.53810847,187.1951,09/17.0/2016,2000,g  8.0,12.0
# From MPC 10028
77P/Longmore,e,24.3464,14.8037,196.7261,3.615982,0.1433391,0.35349826,18.1124,09/17.0/2016,2000,g  7.0,8.0
# From MPC 79654
78P/Gehrels,e,6.2495,210.5555,192.7122,3.738023,0.1363770,0.46111032,233.4333,09/17.0/2016,2000,g  5.5,8.0
# From MPC 94675
79P/du Toit-Hartley,e,3.1458,280.5624,281.7693,2.945356,0.1949833,0.61913483,218.3856,09/17.0/2016,2000,g 16.0,4.0
# From MPC 89313
80P/Peters-Hartley,e,29.9253,259.8592,339.1527,4.023330,0.1221309,0.59930158,82.6640,09/17.0/2016,2000,g  9.0,8.0
# From MPC 98565
